PERSEUS-M1              
1 40039U 14033AF  26187.63822462  .00001444  00000+0  13515-3 0  9994
2 40039  97.9645 132.0906 0010416 228.2327 131.8004 14.95694147653547
POLYITAN-1              
1 40042U 14033AJ  26187.62661620  .00016101  00000+0  49123-3 0  9994
2 40042  98.0939 215.7354 0008460  88.5008 271.7202 15.33997518656575
TIGRISAT                
1 40043U 14033AK  26187.65381221  .00001514  00000+0  17913-3 0  9998
2 40043  97.7858 337.2223 0049365  12.4812 347.7613 14.85232747648512
AEROCUBE 6A             
1 40045U 14033AM  26187.72615363  .00004181  00000+0  35158-3 0  9999
2 40045  97.7237 354.4701 0037299 310.0222  49.7729 14.98288236649541
AEROCUBE 6B             
1 40046U 14033AN  26187.44257635  .00004220  00000+0  34147-3 0  9994
2 40046  97.7218 354.0216 0037815 301.1990  58.5528 14.99746993649641
CANX-4                  
1 40055U 14034C   26187.60622333  .00000917  00000+0  12484-3 0  9993
2 40055  98.3097  63.6301 0011764 313.3306  46.6924 14.81300885647409
CANX-5                  
1 40056U 14034D   26187.60442992  .00000918  00000+0  12491-3 0  9994
2 40056  98.3099  63.6729 0011761 313.5440  46.4793 14.81318219638215
UKUBE-1                 
1 40074U 14037F   26187.53681235  .00006207  00000+0  34748-3 0  9990
2 40074  98.4246 192.8457 0003360 103.1099 257.0505 15.13862909651483
BRITE-PL2 (HEWELIUSZ)   
1 40119U 14049B   26187.85492654  .00002031  00000+0  19243-3 0  9997
2 40119  97.9109 300.0087 0014891  49.1461 311.1047 14.94667012644380
AEROCUBE 5C             
1 40965U 15058B   26187.41449962  .00002597  00000+0  23385-3 0  9992
2 40965  64.7654 202.7708 0131760  55.7914 305.5602 14.91539513368529
AEROCUBE 7              
1 40966U 15058C   26187.68997801  .00003817  00000+0  30749-3 0  9990
2 40966  64.7609 183.7222 0121451  54.0290 307.2015 14.95859784368878
FOX-1A (AO-85)          
1 40967U 15058D   26187.46832603  .00002418  00000+0  22162-3 0  9991
2 40967  64.7734 219.0599 0131693  49.1227 312.1206 14.91055175116441
SINOD-D 1               
1 40968U 15058E   26187.73244957  .00003589  00000+0  28938-3 0  9998
2 40968  64.7736 197.6982 0120368  45.4075 315.6784 14.96035665119582
SNAP-3 ALICE            
1 40970U 15058G   26187.69438110  .00122778  00000+0  11909-2 0  9993
2 40970  64.7492  36.2523 0023470 355.3013   4.7911 15.65388300119935
LMRST-SAT               
1 40971U 15058H   26187.42857640  .00002391  00000+0  22074-3 0  9992
2 40971  64.7739 215.5578 0133244  51.1485 310.1428 14.90671047116425
SNAP-3 EDDIE            
1 40972U 15058J   26187.86057503  .00126327  00000+0  11593-2 0  9990
2 40972  64.7405  26.2504 0024335 357.8955   2.2087 15.66724765122102
PROPCUBE 3              
1 40973U 15058K   26187.34986910  .00003845  00000+0  31930-3 0  9994
2 40973  64.7669 192.6590 0125123  52.4066 308.8329 14.94368741117663
BISONSAT                
1 40974U 15058L   26187.88350464  .00012519  00000+0  59197-3 0  9996
2 40974  64.7579 109.9379 0081238  39.3879 321.3114 15.16767190118607
SNAP-3 JIMI             
1 40975U 15058M   26187.35984754  .00007626  00000+0  51670-3 0  9995
2 40975  64.7640 159.1012 0107215  47.7487 313.2663 15.02523493117104
PROPCUBE 1 (FLORA)      
1 40976U 15058N   26187.46831616  .00001987  00000+0  19344-3 0  9992
2 40976  64.7732 235.4755 0131863  53.4237 307.8923 14.89301803119138
SINOD-D 3               
1 40977U 15058P   26187.38460425  .00003553  00000+0  30148-3 0  9996
2 40977  64.7708 215.8665 0120399  50.5430 310.6262 14.94130258117629
RAVAN                   
1 41849U 16067B   26187.66258791  .00046734  00000+0  65190-3 0  9991
2 41849  97.9849  79.5105 0001483 280.9729  79.1358 15.56768949530724
CELTEE 1                
1 41850U 16067C   26187.56424572  .00004765  00000+0  22559-3 0  9994
2 41850  98.0649  55.4525 0002029 120.7122 239.4312 15.19883845528821
OPTICUBE 04             
1 41851U 16067D   26187.56538134  .00001886  00000+0  12097-3 0  9992
2 41851  98.0683  40.8590 0016763  55.4583 304.8224 15.09746613528093
AEROCUBE 8D             
1 41852U 16067E   26187.58366541  .00006643  00000+0  27194-3 0  9996
2 41852  98.0655  59.2307 0004930  77.9453 282.2334 15.24686709529022
AEROCUBE 8C             
1 41853U 16067F   26187.60545122  .00006396  00000+0  25999-3 0  9990
2 41853  98.0529  56.4572 0005140  12.5275 347.6087 15.24940431529023
CORVUS BC2              
1 42846U 17042X   26187.72448250  .00003487  00000+0  24007-3 0  9991
2 42846  97.4090 348.3176 0013941  49.7156 310.5288 15.06424954490007
CORVUS BC1              
1 42847U 17042Y   26187.38484672  .00003661  00000+0  25088-3 0  9996
2 42847  97.4126 348.8177 0012449  29.8378 330.3557 15.06590495489989
MAKERSAT 0              
1 43016U 17073D   26187.63911722  .00016571  00000+0  44083-3 0  9998
2 43016  97.4596  70.3150 0104976 202.8118 156.8443 15.32782580469440
SIRION PATHFINDER-2     
1 43759U 18099B   26187.67083206  .00004650  00000+0  25427-3 0  9998
2 43759  97.4242 236.2659 0007650 223.3987 136.6643 15.14731584415573
